{"fetched_at":"2026-07-14T06:35:10.594Z","source":"https://celestrak.org/NORAD/elements/gp.php?NAME=TIGER&FORMAT=JSON","constellation":"oq-technology","records":[{"OBJECT_NAME":"TIGER-8","OBJECT_ID":"2024-043Y","EPOCH":"2026-07-13T20:08:34.789056","CLASSIFICATION_TYPE":"U","MEAN_MOTION":15.45153741,"ECCENTRICITY":0.0008871,"INCLINATION":97.5565,"RA_OF_ASC_NODE":344.5298,"ARG_OF_PERICENTER":106.9522,"MEAN_ANOMALY":253.27,"EPHEMERIS_TYPE":0,"NORAD_CAT_ID":59120,"ELEMENT_SET_NO":999,"REV_AT_EPOCH":13190,"BSTAR":0.00012344,"MEAN_MOTION_DOT":0.00005762,"MEAN_MOTION_DDOT":0},{"OBJECT_NAME":"TIGER-7","OBJECT_ID":"2024-043AV","EPOCH":"2026-07-13T08:39:04.734144","CLASSIFICATION_TYPE":"U","MEAN_MOTION":15.49322725,"ECCENTRICITY":0.00068514,"INCLINATION":97.5508,"RA_OF_ASC_NODE":346.5292,"ARG_OF_PERICENTER":82.1739,"MEAN_ANOMALY":278.0289,"EPHEMERIS_TYPE":0,"NORAD_CAT_ID":59141,"ELEMENT_SET_NO":999,"REV_AT_EPOCH":13202,"BSTAR":0.00014061015,"MEAN_MOTION_DOT":0.00007601,"MEAN_MOTION_DDOT":0}]}
