TIGER-8                 
1 59120U 24043Y   26194.83929154  .00005762  00000+0  12344-3 0  9999
2 59120  97.5565 344.5298 0008871 106.9522 253.2700 15.45153741131909
TIGER-7                 
1 59141U 24043AV  26194.36047146  .00007601  00000+0  14061-3 0  9994
2 59141  97.5508 346.5292 0006851  82.1739 278.0289 15.49322725132021
